start=new Date('2022-05-19T00:00:00.000Z').valueOf();
sats=[{"DECAY_DATE":null,"PERIAPSIS":"314.048","APOAPSIS":"328.115","SITE":"AFWTR","TLE_LINE1":"1 50164U 21125J   22138.91667824  .00160426  00000-0  71281-3 0  9997","EPOCH":"2022-05-18T22:00:00.999936","OBJECT_TYPE":"PAYLOAD","MEAN_ELEMENT_THEORY":"SGP4","TLE_LINE2":"2 50164  53.2085 334.1968 0010499 329.6315 221.1854 15.83312716 26690","OBJECT_ID":"2021-125J","LAUNCH_DATE":"2021-12-18","REV_AT_EPOCH":"2669","RA_OF_ASC_NODE":"334.1968","GP_ID":"203882432","MEAN_MOTION_DOT":"0.00160426","REF_FRAME":"TEME","FILE":"3452302","EPHEMERIS_TYPE":"0","SEMIMAJOR_AXIS":"6699.217","MEAN_MOTION":"15.83312716","TIME_SYSTEM":"UTC","ARG_OF_PERICENTER":"329.6315","ELEMENT_SET_NO":"999","INCLINATION":"53.2085","MEAN_MOTION_DDOT":"0.0000000000000","BSTAR":"0.00071281000000","OBJECT_NAME":"STARLINK-3307","RCS_SIZE":"LARGE","NORAD_CAT_ID":"50164","COUNTRY_CODE":"US","CLASSIFICATION_TYPE":"U","PERIOD":"90.949","CENTER_NAME":"EARTH","MEAN_ANOMALY":"221.1854","ECCENTRICITY":"0.00104990"},{"FILE":"3452356","EPHEMERIS_TYPE":"0","REF_FRAME":"TEME","MEAN_MOTION_DOT":"-0.00044537","LAUNCH_DATE":"2021-12-18","OBJECT_ID":"2021-125K","REV_AT_EPOCH":"130","GP_ID":"203907392","RA_OF_ASC_NODE":"22.5543","OBJECT_TYPE":"PAYLOAD","TLE_LINE2":"2 50165  53.2170  22.5543 0002060  42.3436 331.2311 15.08850969  1307","MEAN_ELEMENT_THEORY":"SGP4","APOAPSIS":"541.137","PERIAPSIS":"538.287","DECAY_DATE":null,"EPOCH":"2022-05-18T22:00:00.999936","TLE_LINE1":"1 50165U 21125K   22138.91667824 -.00044537  00000-0 -27967-2 0  9995","SITE":"AFWTR","CENTER_NAME":"EARTH","PERIOD":"95.437","COUNTRY_CODE":"US","CLASSIFICATION_TYPE":"U","MEAN_ANOMALY":"331.2311","ECCENTRICITY":"0.00020600","RCS_SIZE":"LARGE","NORAD_CAT_ID":"50165","BSTAR":"-0.00279670000000","MEAN_MOTION_DDOT":"0.0000000000000","OBJECT_NAME":"STARLINK-3298","SEMIMAJOR_AXIS":"6917.847","MEAN_MOTION":"15.08850969","TIME_SYSTEM":"UTC","ELEMENT_SET_NO":"999","ARG_OF_PERICENTER":"42.3436","INCLINATION":"53.2170"},{"COUNTRY_CODE":"US","CLASSIFICATION_TYPE":"U","CENTER_NAME":"EARTH","PERIOD":"95.436","MEAN_ANOMALY":"198.9348","ECCENTRICITY":"0.00018040","RCS_SIZE":"LARGE","NORAD_CAT_ID":"50166","MEAN_MOTION_DDOT":"0.0000000000000","BSTAR":"-0.00361310000000","OBJECT_NAME":"STARLINK-3305","SEMIMAJOR_AXIS":"6917.826","MEAN_MOTION":"15.08857918","TIME_SYSTEM":"UTC","ELEMENT_SET_NO":"999","INCLINATION":"53.2174","ARG_OF_PERICENTER":"49.6498","MEAN_MOTION_DOT":"-0.00057362","REF_FRAME":"TEME","EPHEMERIS_TYPE":"0","FILE":"3452356","OBJECT_ID":"2021-125L","LAUNCH_DATE":"2021-12-18","REV_AT_EPOCH":"130","RA_OF_ASC_NODE":"12.5396","GP_ID":"203906140","OBJECT_TYPE":"PAYLOAD","MEAN_ELEMENT_THEORY":"SGP4","TLE_LINE2":"2 50166  53.2174  12.5396 0001804  49.6498 198.9348 15.08857918  1309","DECAY_DATE":null,"PERIAPSIS":"538.443","APOAPSIS":"540.939","SITE":"AFWTR","TLE_LINE1":"1 50166U 21125L   22138.91667824 -.00057362  00000-0 -36131-2 0  9999","EPOCH":"2022-05-18T22:00:00.999936"},{"REF_FRAME":"TEME","MEAN_MOTION_DOT":"-0.00049282","EPHEMERIS_TYPE":"0","FILE":"3452335","OBJECT_ID":"2021-125M","LAUNCH_DATE":"2021-12-18","REV_AT_EPOCH":"2601","GP_ID":"203882824","RA_OF_ASC_NODE":"22.5384","OBJECT_TYPE":"PAYLOAD","TLE_LINE2":"2 50167  53.2187  22.5384 0002317  32.7575  20.8332 15.08848552 26016","MEAN_ELEMENT_THEORY":"SGP4","PERIAPSIS":"538.116","DECAY_DATE":null,"APOAPSIS":"541.322","SITE":"AFWTR","TLE_LINE1":"1 50167U 21125M   22138.91667824 -.00049282  00000-0 -30988-2 0  9996","EPOCH":"2022-05-18T22:00:00.999936","COUNTRY_CODE":"US","CLASSIFICATION_TYPE":"U","CENTER_NAME":"EARTH","PERIOD":"95.437","MEAN_ANOMALY":"20.8332","ECCENTRICITY":"0.00023170","RCS_SIZE":"LARGE","NORAD_CAT_ID":"50167","MEAN_MOTION_DDOT":"0.0000000000000","BSTAR":"-0.00309880000000","OBJECT_NAME":"STARLINK-3271","SEMIMAJOR_AXIS":"6917.854","MEAN_MOTION":"15.08848552","TIME_SYSTEM":"UTC","ELEMENT_SET_NO":"999","INCLINATION":"53.2187","ARG_OF_PERICENTER":"32.7575"},{"MEAN_MOTION_DDOT":"0.0000000000000","BSTAR":"-0.00309320000000","OBJECT_NAME":"STARLINK-3296","SEMIMAJOR_AXIS":"6917.839","MEAN_MOTION":"15.08853386","TIME_SYSTEM":"UTC","ARG_OF_PERICENTER":"50.5829","ELEMENT_SET_NO":"999","INCLINATION":"53.2174","COUNTRY_CODE":"US","CLASSIFICATION_TYPE":"U","PERIOD":"95.437","CENTER_NAME":"EARTH","MEAN_ANOMALY":"218.0083","ECCENTRICITY":"0.00017250","RCS_SIZE":"LARGE","NORAD_CAT_ID":"50168","OBJECT_TYPE":"PAYLOAD","TLE_LINE2":"2 50168  53.2174  12.5401 0001725  50.5829 218.0083 15.08853386  1304","MEAN_ELEMENT_THEORY":"SGP4","DECAY_DATE":null,"PERIAPSIS":"538.511","APOAPSIS":"540.898","SITE":"AFWTR","TLE_LINE1":"1 50168U 21125N   22138.91667824 -.00049199  00000-0 -30932-2 0  9993","EPOCH":"2022-05-18T22:00:00.999936","MEAN_MOTION_DOT":"-0.00049199","REF_FRAME":"TEME","FILE":"3452356","EPHEMERIS_TYPE":"0","OBJECT_ID":"2021-125N","LAUNCH_DATE":"2021-12-18","REV_AT_EPOCH":"130","RA_OF_ASC_NODE":"12.5401","GP_ID":"203907641"},{"BSTAR":"-0.00119450000000","MEAN_MOTION_DDOT":"0.0000000000000","OBJECT_NAME":"STARLINK-3301","MEAN_MOTION":"15.08842719","SEMIMAJOR_AXIS":"6917.872","ELEMENT_SET_NO":"999","ARG_OF_PERICENTER":"40.4705","INCLINATION":"53.2182","TIME_SYSTEM":"UTC","CENTER_NAME":"EARTH","PERIOD":"95.437","CLASSIFICATION_TYPE":"U","COUNTRY_CODE":"US","ECCENTRICITY":"0.00021910","MEAN_ANOMALY":"28.0561","NORAD_CAT_ID":"50169","RCS_SIZE":"LARGE","OBJECT_TYPE":"PAYLOAD","TLE_LINE2":"2 50169  53.2182  12.5496 0002191  40.4705  28.0561 15.08842719 23556","MEAN_ELEMENT_THEORY":"SGP4","APOAPSIS":"541.253","PERIAPSIS":"538.221","DECAY_DATE":null,"TLE_LINE1":"1 50169U 21125P   22138.91667824 -.00019250  00000-0 -11945-2 0  9992","EPOCH":"2022-05-18T22:00:00.999936","SITE":"AFWTR","FILE":"3452333","EPHEMERIS_TYPE":"0","REF_FRAME":"TEME","MEAN_MOTION_DOT":"-0.00019250","LAUNCH_DATE":"2021-12-18","OBJECT_ID":"2021-125P","GP_ID":"203882806","RA_OF_ASC_NODE":"12.5496","REV_AT_EPOCH":"2355"},{"ARG_OF_PERICENTER":"47.1620","ELEMENT_SET_NO":"999","INCLINATION":"53.2161","TIME_SYSTEM":"UTC","MEAN_MOTION":"15.08824533","SEMIMAJOR_AXIS":"6917.928","OBJECT_NAME":"STARLINK-3245","BSTAR":"0.00045613000000","MEAN_MOTION_DDOT":"0.0000000000000","NORAD_CAT_ID":"50170","RCS_SIZE":"LARGE","ECCENTRICITY":"0.00019270","MEAN_ANOMALY":"261.3915","PERIOD":"95.439","CENTER_NAME":"EARTH","CLASSIFICATION_TYPE":"U","COUNTRY_CODE":"US","EPOCH":"2022-05-18T22:00:00.999936","TLE_LINE1":"1 50170U 21125Q   22138.91667824  .00006976  00000-0  45613-3 0  9993","SITE":"AFWTR","APOAPSIS":"541.126","PERIAPSIS":"538.460","DECAY_DATE":null,"MEAN_ELEMENT_THEORY":"SGP4","TLE_LINE2":"2 50170  53.2161  12.5394 0001927  47.1620 261.3915 15.08824533 26156","OBJECT_TYPE":"PAYLOAD","GP_ID":"203879755","RA_OF_ASC_NODE":"12.5394","REV_AT_EPOCH":"2615","LAUNCH_DATE":"2021-12-18","OBJECT_ID":"2021-125Q","FILE":"3452208","EPHEMERIS_TYPE":"0","REF_FRAME":"TEME","MEAN_MOTION_DOT":"0.00006976"},{"ARG_OF_PERICENTER":"46.3358","ELEMENT_SET_NO":"999","INCLINATION":"53.2166","TIME_SYSTEM":"UTC","MEAN_MOTION":"15.08846236","SEMIMAJOR_AXIS":"6917.861","OBJECT_NAME":"STARLINK-3286","MEAN_MOTION_DDOT":"0.0000000000000","BSTAR":"-0.00280100000000","NORAD_CAT_ID":"50171","RCS_SIZE":"LARGE","ECCENTRICITY":"0.00018860","MEAN_ANOMALY":"182.2039","CLASSIFICATION_TYPE":"U","COUNTRY_CODE":"US","CENTER_NAME":"EARTH","PERIOD":"95.437","SITE":"AFWTR","EPOCH":"2022-05-18T22:00:00.999936","TLE_LINE1":"1 50171U 21125R   22138.91667824 -.00044599  00000-0 -28010-2 0  9990","DECAY_DATE":null,"PERIAPSIS":"538.422","APOAPSIS":"541.031","MEAN_ELEMENT_THEORY":"SGP4","TLE_LINE2":"2 50171  53.2166  12.5412 0001886  46.3358 182.2039 15.08846236 26158","OBJECT_TYPE":"PAYLOAD","RA_OF_ASC_NODE":"12.5412","GP_ID":"203882813","REV_AT_EPOCH":"2615","OBJECT_ID":"2021-125R","LAUNCH_DATE":"2021-12-18","REF_FRAME":"TEME","MEAN_MOTION_DOT":"-0.00044599","EPHEMERIS_TYPE":"0","FILE":"3452334"},{"NORAD_CAT_ID":"50172","RCS_SIZE":"LARGE","ECCENTRICITY":"0.00023090","MEAN_ANOMALY":"309.7613","CLASSIFICATION_TYPE":"U","COUNTRY_CODE":"US","PERIOD":"95.436","CENTER_NAME":"EARTH","INCLINATION":"53.2179","ELEMENT_SET_NO":"999","ARG_OF_PERICENTER":"38.7880","TIME_SYSTEM":"UTC","MEAN_MOTION":"15.08867539","SEMIMAJOR_AXIS":"6917.796","OBJECT_NAME":"STARLINK-3287","MEAN_MOTION_DDOT":"0.0000000000000","BSTAR":"-0.00265720000000","RA_OF_ASC_NODE":"12.5511","GP_ID":"203882818","REV_AT_EPOCH":"2615","OBJECT_ID":"2021-125S","LAUNCH_DATE":"2021-12-18","REF_FRAME":"TEME","MEAN_MOTION_DOT":"-0.00042363","FILE":"3452334","EPHEMERIS_TYPE":"0","SITE":"AFWTR","TLE_LINE1":"1 50172U 21125S   22138.91667824 -.00042363  00000-0 -26572-2 0  9999","EPOCH":"2022-05-18T22:00:00.999936","PERIAPSIS":"538.064","DECAY_DATE":null,"APOAPSIS":"541.259","TLE_LINE2":"2 50172  53.2179  12.5511 0002309  38.7880 309.7613 15.08867539 26152","MEAN_ELEMENT_THEORY":"SGP4","OBJECT_TYPE":"PAYLOAD"},{"SEMIMAJOR_AXIS":"6917.877","MEAN_MOTION":"15.08841007","TIME_SYSTEM":"UTC","ARG_OF_PERICENTER":"286.2567","ELEMENT_SET_NO":"999","INCLINATION":"53.2243","BSTAR":"-0.00232620000000","MEAN_MOTION_DDOT":"0.0000000000000","OBJECT_NAME":"STARLINK-3289","RCS_SIZE":"LARGE","NORAD_CAT_ID":"50173","CENTER_NAME":"EARTH","PERIOD":"95.437","COUNTRY_CODE":"US","CLASSIFICATION_TYPE":"U","MEAN_ANOMALY":"272.1226","ECCENTRICITY":"0.00062680","APOAPSIS":"544.078","PERIAPSIS":"535.406","DECAY_DATE":null,"TLE_LINE1":"1 50173U 21125T   22138.91667824 -.00037139  00000-0 -23262-2 0  9998","EPOCH":"2022-05-18T22:00:00.999936","SITE":"AFWTR","OBJECT_TYPE":"PAYLOAD","MEAN_ELEMENT_THEORY":"SGP4","TLE_LINE2":"2 50173  53.2243   2.4770 0006268 286.2567 272.1226 15.08841007  1305","LAUNCH_DATE":"2021-12-18","OBJECT_ID":"2021-125T","REV_AT_EPOCH":"130","RA_OF_ASC_NODE":"2.4770","GP_ID":"203907393","FILE":"3452356","EPHEMERIS_TYPE":"0","REF_FRAME":"TEME","MEAN_MOTION_DOT":"-0.00037139"}];
